CUTE-1 (CO-55)          
1 27844U 03031E   26154.54951729  .00000336  00000+0  16425-3 0  9994
2 27844  98.6736 163.2800 0008690 219.4250 140.6297 14.24327019189732
CUBESAT XI-V            
1 28895U 05043F   26156.37597231  .00001533  00000+0  24897-3 0  9995
2 28895  98.2974 311.7509 0012981 240.3240 119.6675 14.72598573100013
CUTE-1.7+APD II (CO-65) 
1 32785U 08021C   26156.71379230  .00005593  00000+0  35426-3 0  9992
2 32785  97.8271 137.8952 0010521  72.3212 287.9164 15.09336767983466
CANX-2                  
1 32790U 08021H   26156.45813189  .00003993  00000+0  28153-3 0  9996
2 32790  97.8638 136.0099 0012336  85.4073 274.8561 15.05530779983043
SEEDS II (CO-66)        
1 32791U 08021J   26156.44822116  .00019038  00000+0  61158-3 0  9995
2 32791  97.7518 153.7894 0002814  37.2994 322.8442 15.32333038985498
SWISSCUBE               
1 35932U 09051B   26156.46919882  .00001141  00000+0  23506-3 0  9999
2 35932  98.4043  64.1532 0005431 246.3597 113.7034 14.62458714887444
BEESAT-1                
1 35933U 09051C   26156.54100500  .00000964  00000+0  20332-3 0  9994
2 35933  98.3972  63.8860 0003903 263.9063  96.1693 14.61701276887482
ITUPSAT1                
1 35935U 09051E   26155.69953963  .00000958  00000+0  20796-3 0  9997
2 35935  98.4056  62.2366 0006134 280.9538  79.0971 14.60421767886916
AEROCUBE 4.5A           
1 38767U 12048K   26156.47576964  .00289548  36779-4  10718-2 0  9995
2 38767  64.6279  69.5032 0019069 213.9244 146.0696 15.87599348370799
STRAND-1                
1 39090U 13009E   26156.49876751  .00000302  00000+0  11583-3 0  9996
2 39090  98.3919 337.0211 0007392 265.4490  94.5853 14.37156205695389
BRITE-AUSTRIA           
1 39091U 13009F   26156.43695209  .00000190  00000+0  79122-4 0  9997
2 39091  98.3993 336.1638 0008963 276.1708  83.8457 14.36537301695369
NEE-01 PEGASO           
1 39151U 13018B   26156.34103200  .00003270  00000+0  31526-3 0  9996
2 39151  98.1212 300.1011 0012278 197.0063 163.0746 14.93598447708934
POPACS 2                
1 39269U 13055E   26156.70090359  .00011134  00000+0  19010-3 0  9999
2 39269  80.9906 157.3383 0417280 230.7002 125.6522 14.90930971661503
POPACS 3                
1 39270U 13055F   26156.50573186  .00012088  00000+0  28492-3 0  9996
2 39270  81.0023 241.8479 0553117 105.5298 260.7651 14.55887656636854
ZACUBE-1 (TSHEPISOSAT)  
1 39417U 13066B   26156.67567771  .00004480  00000+0  34902-3 0  9992
2 39417  97.8105 118.9505 0039931 288.3391  71.3492 15.01111253679002
WNISAT-1                
1 39423U 13066H   26156.68189398  .00000736  00000+0  14317-3 0  9993
2 39423  97.7190 306.6556 0161670 268.1305  90.1374 14.58044738665053
NEE-02 KRYSAOR          
1 39441U 13066AB  26156.56472700  .00002460  00000+0  27256-3 0  9994
2 39441  97.8891  95.8634 0067668 107.4021 253.4608 14.86567826674477
FUNCUBE-1 (AO-73)       
1 39444U 13066AE  26156.72056139  .00007673  00000+0  47823-3 0  9992
2 39444  97.8279 127.9286 0034657 241.2535 118.5210 15.09347901677939
UWE-3                   
1 39446U 13066AG  26156.38457537  .00004324  00000+0  37270-3 0  9998
2 39446  97.8699 112.3806 0049229   1.0820 359.0498 14.96928204675814
BRITE-CA1 (TORONTO)     
1 40020U 14033L   26156.62307795  .00000768  00000+0  12310-3 0  9996
2 40020  97.9727 285.7652 0077589 314.6583  44.8317 14.72660581640513
DUCHIFAT-1              
1 40021U 14033M   26156.43696292  .00091631  00000+0  10321-2 0  9997
2 40021  98.0469 213.9697 0004709 135.9979 224.1653 15.62240333653911
NANOSATC-BR1            
1 40024U 14033Q   26156.05089345  .00019638  00000+0  65634-3 0  9998
2 40024  98.0722 187.3677 0003176 199.6617 160.4501 15.31055935652125
QB50P1                  
1 40025U 14033R   26156.28625995  .00008026  00000+0  39735-3 0  9993
2 40025  98.0971 166.5996 0007025 264.5036  95.5395 15.18070423651222
QB50P2                  
1 40032U 14033Y   26156.47630529  .00008036  00000+0  43394-3 0  9998
2 40032  98.0754 152.6291 0006766 203.3827 156.7096 15.15001181650895
