OBJECT_NAME,OBJECT_ID,EPOCH,MEAN_MOTION,ECCENTRICITY,INCLINATION,RA_OF_ASC_NODE,ARG_OF_PERICENTER,MEAN_ANOMALY,EPHEMERIS_TYPE,CLASSIFICATION_TYPE,NORAD_CAT_ID,ELEMENT_SET_NO,REV_AT_EPOCH,BSTAR,MEAN_MOTION_DOT,MEAN_MOTION_DDOT
CUTE-1 (CO-55),2003-031E,2026-06-03T13:11:18.293856,14.24327019,.00086909,98.6736,163.2800,219.4250,140.6297,0,U,27844,999,18973,.16425086E-3,.336E-5,0
CUBESAT XI-V,2005-043F,2026-06-05T09:01:24.007584,14.72598573,.0012981,98.2974,311.7509,240.3240,119.6675,0,U,28895,999,10001,.24897E-3,.1533E-4,0
CUTE-1.7+APD II (CO-65),2008-021C,2026-06-05T17:07:51.654720,15.09336767,.0010521,97.8271,137.8952,72.3212,287.9164,0,U,32785,999,98346,.35426E-3,.5593E-4,0
CANX-2,2008-021H,2026-06-05T10:59:42.595296,15.05530779,.0012336,97.8638,136.0099,85.4073,274.8561,0,U,32790,999,98304,.28153E-3,.3993E-4,0
SEEDS II (CO-66),2008-021J,2026-06-05T10:45:26.308224,15.32333038,.0002814,97.7518,153.7894,37.2994,322.8442,0,U,32791,999,98549,.61158E-3,.19038E-3,0
SWISSCUBE,2009-051B,2026-06-05T11:15:38.778048,14.62458714,.0005431,98.4043,64.1532,246.3597,113.7034,0,U,35932,999,88744,.23506E-3,.1141E-4,0
BEESAT-1,2009-051C,2026-06-05T12:59:02.832000,14.61701276,.0003903,98.3972,63.8860,263.9063,96.1693,0,U,35933,999,88748,.20332E-3,.964E-5,0
ITUPSAT1,2009-051E,2026-06-04T16:47:20.224032,14.60421767,.0006134,98.4056,62.2366,280.9538,79.0971,0,U,35935,999,88691,.20796E-3,.958E-5,0
AEROCUBE 4.5A,2012-048K,2026-06-05T11:25:06.496896,15.87599348,.0019069,64.6279,69.5032,213.9244,146.0696,0,U,38767,999,37079,.10718E-2,.289548E-2,.36779E-4
STRAND-1,2013-009E,2026-06-05T11:58:13.512864,14.37156205,.0007392,98.3919,337.0211,265.4490,94.5853,0,U,39090,999,69538,.11583E-3,.302E-5,0
BRITE-AUSTRIA,2013-009F,2026-06-05T10:29:12.660576,14.36537301,.0008963,98.3993,336.1638,276.1708,83.8457,0,U,39091,999,69536,.79122E-4,.19E-5,0
NEE-01 PEGASO,2013-018B,2026-06-05T08:11:05.164800,14.93598447,.0012278,98.1212,300.1011,197.0063,163.0746,0,U,39151,999,70893,.31526E-3,.327E-4,0
POPACS 2,2013-055E,2026-06-05T16:49:18.070176,14.90930971,.041728,80.9906,157.3383,230.7002,125.6522,0,U,39269,999,66150,.1901E-3,.11134E-3,0
POPACS 3,2013-055F,2026-06-05T12:08:15.232704,14.55887656,.0553117,81.0023,241.8479,105.5298,260.7651,0,U,39270,999,63685,.28492E-3,.12088E-3,0
ZACUBE-1 (TSHEPISOSAT),2013-066B,2026-06-05T16:12:58.554144,15.01111253,.0039931,97.8105,118.9505,288.3391,71.3492,0,U,39417,999,67900,.34902E-3,.448E-4,0
WNISAT-1,2013-066H,2026-06-05T16:21:55.639872,14.58044738,.016167,97.7190,306.6556,268.1305,90.1374,0,U,39423,999,66505,.14317E-3,.736E-5,0
NEE-02 KRYSAOR,2013-066AB,2026-06-05T13:33:12.412800,14.86567826,.0067668,97.8891,95.8634,107.4021,253.4608,0,U,39441,999,67447,.27256E-3,.246E-4,0
FUNCUBE-1 (AO-73),2013-066AE,2026-06-05T17:17:36.504096,15.09347901,.0034657,97.8279,127.9286,241.2535,118.5210,0,U,39444,999,67793,.47823E-3,.7673E-4,0
UWE-3,2013-066AG,2026-06-05T09:13:47.311968,14.96928204,.0049229,97.8699,112.3806,1.0820,359.0498,0,U,39446,999,67581,.3727E-3,.4324E-4,0
BRITE-CA1 (TORONTO),2014-033L,2026-06-05T14:57:13.934880,14.72660581,.0077589,97.9727,285.7652,314.6583,44.8317,0,U,40020,999,64051,.1231E-3,.768E-5,0
DUCHIFAT-1,2014-033M,2026-06-05T10:29:13.596288,15.62240333,.0004709,98.0469,213.9697,135.9979,224.1653,0,U,40021,999,65391,.10321E-2,.91631E-3,0
NANOSATC-BR1,2014-033Q,2026-06-05T01:13:17.194080,15.31055935,.00031768,98.0722,187.3677,199.6617,160.4501,0,U,40024,999,65212,.65634437E-3,.19638E-3,0
QB50P1,2014-033R,2026-06-05T06:52:12.859680,15.18070423,.0007025,98.0971,166.5996,264.5036,95.5395,0,U,40025,999,65122,.39735E-3,.8026E-4,0
QB50P2,2014-033Y,2026-06-05T11:25:52.777056,15.15001181,.0006766,98.0754,152.6291,203.3827,156.7096,0,U,40032,999,65089,.43394E-3,.8036E-4,0
